{
    "links": {
        "self": "http://www.neowsapp.com/rest/v1/neo/3765004?api_key=iIulBulltgU6a56xZRHN4H3l9WmuAYTsLGpBGhQ2"
    },
    "id": "3765004",
    "neo_reference_id": "3765004",
    "name": "(2016 XA)",
    "designation": "2016 XA",
    "nasa_jpl_url": "http://ssd.jpl.nasa.gov/sbdb.cgi?sstr=3765004",
    "absolute_magnitude_h": 26.0,
    "estimated_diameter": {
        "kilometers": {
            "estimated_diameter_min": 0.0167708462,
            "estimated_diameter_max": 0.0375007522
        },
        "meters": {
            "estimated_diameter_min": 16.7708462163,
            "estimated_diameter_max": 37.5007521798
        },
        "miles": {
            "estimated_diameter_min": 0.0104209175,
            "estimated_diameter_max": 0.0233018799
        },
        "feet": {
            "estimated_diameter_min": 55.0224631002,
            "estimated_diameter_max": 123.0339677816
        }
    },
    "is_potentially_hazardous_asteroid": false,
    "close_approach_data": [
        {
            "close_approach_date": "2016-12-12",
            "close_approach_date_full": "2016-Dec-12 01:30",
            "epoch_date_close_approach": 1481506200000,
            "relative_velocity": {
                "kilometers_per_second": "11.0626046844",
                "kilometers_per_hour": "39825.3768638364",
                "miles_per_hour": "24745.9404185321"
            },
            "miss_distance": {
                "astronomical": "0.0184902528",
                "lunar": "7.1927083392",
                "kilometers": "2766102.434641536",
                "miles": "1718776.3521677568"
            },
            "orbiting_body": "Earth"
        }
    ],
    "orbital_data": {
        "orbit_id": "8",
        "orbit_determination_date": "2017-04-06 08:21:43",
        "first_observation_date": "2016-11-26",
        "last_observation_date": "2016-12-11",
        "data_arc_in_days": 15,
        "observations_used": 52,
        "orbit_uncertainty": "8",
        "minimum_orbit_intersection": ".0112388",
        "jupiter_tisserand_invariant": "3.776",
        "epoch_osculation": "2457722.5",
        "eccentricity": ".5293130222637028",
        "semi_major_axis": "1.888662241042767",
        "inclination": "2.491199394104317",
        "ascending_node_longitude": "247.2391927451464",
        "orbital_period": "948.0470115492376",
        "perihelion_distance": ".8889687222010821",
        "perihelion_argument": "239.4081790901924",
        "aphelion_distance": "2.888355759884452",
        "perihelion_time": "2457768.405331288459",
        "mean_anomaly": "342.5684601475198",
        "mean_motion": ".3797280046394652",
        "equinox": "J2000",
        "orbit_class": {
            "orbit_class_type": "APO",
            "orbit_class_description": "Near-Earth asteroid orbits which cross the Earth’s orbit similar to that of 1862 Apollo",
            "orbit_class_range": "a (semi-major axis) > 1.0 AU; q (perihelion) < 1.017 AU"
        }
    },
    "is_sentry_object": false
}